0 FENGYUN 1C DEB
1 31093U 99025BGP 13280.42603944  .00000244  00000-0  24195-3 0  7180
2 31093 098.6203 080.1666 0214865 333.7289 079.1537 13.77110294332324
0 FENGYUN 1C DEB
1 31093U 99025BGP 13282.98317449  .00000297  00000-0  28731-3 0  7194
2 31093 098.6200 082.4886 0214796 326.8235 156.4292 13.77112474332674
0 FENGYUN 1C DEB
1 31093U 99025BGP 13285.96317522  .00000280  00000-0  27266-3 0  7203
2 31093 098.6202 085.1944 0214761 318.7673 170.1397 13.77114647333088
0 FENGYUN 1C DEB
1 31093U 99025BGP 13288.41804868  .00000409  00000-0  38323-3 0  7210
2 31093 098.6206 087.4236 0214789 312.1311 100.4875 13.77116647333425
0 FENGYUN 1C DEB
1 31093U 99025BGP 13291.39165412  .00000389  00000-0  36575-3 0  7221
2 31093 098.6212 090.1241 0214760 304.0934 082.5407 13.77118849333831
0 FENGYUN 1C DEB
1 31093U 99025BGP 13293.43173034  .00000441  00000-0  41080-3 0  7234
2 31093 098.6213 091.9770 0214766 298.5824 116.5053 13.77120502334115
